ONEWEB-0267             
1 48985U 21060U   22008.91667824  .00044982  00000+0  11709+0 0  9991
2 48985  87.9117 191.1329 0001563  63.0267  83.5627 13.16573914  3288
ONEWEB-0268             
1 48986U 21060V   22008.91667824  .00041258  00000+0  10744+0 0  9993
2 48986  87.9167 191.1092 0001735  79.1214 203.7906 13.16571963  3280
ONEWEB-0269             
1 48987U 21060W   22009.25001157 -.00005242  00000+0 -13756-1 0  9996
2 48987  87.9152 191.0920 0001668  88.1684  77.3781 13.16588584 27762
ONEWEB-0270             
1 48988U 21060X   22008.91667824  .00039693  00000+0  10337+0 0  9993
2 48988  87.9147 191.1130 0001401  97.0626 213.0910 13.16578991  3286
ONEWEB-0271             
1 48989U 21060Y   22008.91667824  .00038270  00000+0  99686-1 0  9990
2 48989  87.9127 191.1527 0001211  64.6572 300.1297 13.16575296  3285
ONEWEB-0272             
1 48990U 21060Z   22008.91667824  .00042943  00000+0  11180+0 0  9995
2 48990  87.9150 191.1286 0001441  70.0482 185.5804 13.16577561  3298
ONEWEB-0273             
1 48991U 21060AA  22009.25001157 -.00003728  00000+0 -97914-2 0  9997
2 48991  87.9128 191.0498 0001254  83.8764 212.6279 13.16587454 27729
ONEWEB-0274             
1 48992U 21060AB  22008.91667824  .00038977  00000+0  10152+0 0  9997
2 48992  87.9164 191.1793 0001182  71.5633 325.8900 13.16574393  3290
ONEWEB-0275             
1 48993U 21060AC  22008.91667824  .00042047  00000+0  10949+0 0  9995
2 48993  87.9133 191.1381 0001375  74.6618  17.2958 13.16569235  3295
ONEWEB-0276             
1 48994U 21060AD  22008.91667824  .00040931  00000+0  10658+0 0  9993
2 48994  87.9140 191.1942 0001069  72.1277 216.1982 13.16579988  3328
ONEWEB-0277             
1 48995U 21060AE  22009.25001157 -.00003904  00000+0 -10250-1 0  9994
2 48995  87.9139 191.1294 0001291  59.5634 302.3612 13.16590712 27692
ONEWEB-0278             
1 48996U 21060AF  22008.91667824  .00041576  00000+0  10826+0 0  9998
2 48996  87.9193 191.0283 0001260  82.8464 194.6897 13.16575313  3293
ONEWEB-0279             
1 48997U 21060AG  22008.91667824  .00044152  00000+0  11494+0 0  9994
2 48997  87.9146 191.1138 0001417  96.3872 137.4435 13.16573532  3293
ONEWEB-0280             
1 48998U 21060AH  22008.91667824  .00045500  00000+0  11844+0 0  9992
2 48998  87.9126 191.1423 0001388  44.1758 124.2025 13.16569377  3291
ONEWEB-0281             
1 48999U 21060AJ  22009.25001157 -.00003952  00000+0 -10377-1 0  9991
2 48999  87.9145 191.0383 0002060  85.6292 189.0629 13.16591928 27773
ONEWEB-0282             
1 49000U 21060AK  22008.91667824  .00038318  00000+0  99808-1 0  9994
2 49000  87.9138 191.1727 0001004  74.6443 279.2067 13.16576231  3328
ONEWEB-0283             
1 49001U 21060AL  22008.91667824  .00039448  00000+0  10274+0 0  9998
2 49001  87.9128 191.1769 0001330  72.0243 336.3352 13.16576385  3306
ONEWEB-0284             
1 49002U 21060AM  22008.91667824  .00041352  00000+0  10768+0 0  9994
2 49002  87.9162 191.1592 0001021  82.1393 358.9848 13.16574366  3299
ONEWEB-0285             
1 49075U 21075A   22009.25001157  .00058314  00000+0  66221-2 0  9993
2 49075  87.5335 321.3672 0018292 149.2904 171.9140 14.85895383 22273
ONEWEB-0286             
1 49076U 21075B   22009.25001157  .00056108  00000+0  65737-2 0  9994
2 49076  87.5039 317.1385 0021378 153.3027 219.2935 14.84578776 22282
ONEWEB-0287             
1 49077U 21075C   22008.91667824 -.00016499  00000+0 -42597-1 0  9995
2 49077  87.9114 328.0311 0001456  94.9299 223.1876 13.17660642  3328
ONEWEB-0288             
1 49078U 21075D   22009.25001157  .00099776  00000+0  11287-1 0  9994
2 49078  87.5373 321.3822 0018990 155.9100 336.7810 14.85808141 22295
ONEWEB-0289             
1 49079U 21075E   22008.91667824 -.00020791  00000+0 -44070-1 0  9995
2 49079  88.2902 326.1181 0000285 216.3914 157.1247 13.30902737  3367
ONEWEB-0290             
1 49080U 21075F   22008.91667824 -.00015748  00000+0 -40655-1 0  9998
2 49080  87.9126 328.0375 0001482  89.9864 198.6268 13.17661568 21224
ONEWEB-0291             
1 49081U 21075G   22009.25001157  .00045024  00000+0  11540+0 0  9995
2 49081  87.9159 327.9799 0001567  92.2586  28.1563 13.17625364 21264
ONEWEB-0293             
1 49082U 21075H   22009.25001157  .00043822  00000+0  11232+0 0  9998
2 49082  87.9089 327.9341 0001434  92.7174 306.6297 13.17632775 21285
ONEWEB-0294             
1 49083U 21075J   22009.25001157  .00057398  00000+0  67251-2 0  9997
2 49083  87.4991 317.1291 0022966 147.8756 311.5437 14.84544686 22302
ONEWEB-0295             
1 49084U 21075K   22009.25001157  .00043660  00000+0  11191+0 0  9994
2 49084  87.9099 327.9165 0001735 107.6074 284.5373 13.17630028 21223
ONEWEB-0296             
1 49085U 21075L   22009.25001157  .00058940  00000+0  69102-2 0  9990
2 49085  87.5147 317.1720 0022650 154.1672 168.7626 14.84514827 22297
ONEWEB-0297             
1 49086U 21075M   22009.25001157  .00059244  00000+0  67251-2 0  9992
2 49086  87.5329 321.3666 0018753 145.1886 167.3156 14.85900169 22283
ONEWEB-0298             
1 49087U 21075N   22009.25001157  .00043492  00000+0  11150+0 0  9995
2 49087  87.9050 327.9103 0002328  87.1565 298.0354 13.17618265 21285
ONEWEB-0299             
1 49088U 21075P   22009.25001157  .00043340  00000+0  11109+0 0  9992
2 49088  87.9079 327.8680 0002058  87.1894 290.3264 13.17632222 21241
ONEWEB-0300             
1 49089U 21075Q   22009.25001157  .00065244  00000+0  74013-2 0  9996
2 49089  87.5364 321.3561 0019903 154.4193  13.8394 14.85877810 22297
ONEWEB-0301             
1 49090U 21075R   22009.25001157  .00062996  00000+0  73750-2 0  9996
2 49090  87.5130 317.1507 0020923 151.6918  26.2092 14.84579465 22298
ONEWEB-0302             
1 49091U 21075S   22008.91667824 -.00043484  00000+0 -51641-2 0  9996
2 49091  87.5098 317.2171 0022462 148.3281 109.7681 14.84633246  3542
ONEWEB-0304             
1 49092U 21075T   22008.91667824 -.00016362  00000+0 -42241-1 0  9997
2 49092  87.9127 327.9992 0001846  84.6218 226.0960 13.17662713  3295
ONEWEB-0305             
1 49093U 21075U   22009.25001157  .00045026  00000+0  11540+0 0  9990
2 49093  87.9146 327.9684 0002107  94.5566  33.1722 13.17627004 21244
ONEWEB-0308             
1 49094U 21075V   22008.91667824 -.00039942  00000+0 -47436-2 0  9990
2 49094  87.5113 317.2814 0020707 155.4797 303.7761 14.84641723  3531
ONEWEB-0309             
1 49095U 21075W   22009.25001157  .00044986  00000+0  11528+0 0  9992
2 49095  87.9137 327.9599 0001084  90.2235  15.2518 13.17638295 21237
ONEWEB-0310             
1 49096U 21075X   22009.25001157  .00054290  00000+0  61708-2 0  9990
2 49096  87.5400 321.4510 0017817 154.3145 242.1018 14.85886179 22286
ONEWEB-0311             
1 49097U 21075Y   22009.25001157  .00044720  00000+0  11461+0 0  9996
2 49097  87.9094 327.9713 0002283  89.4464 354.1367 13.17633435 21299
ONEWEB-0312             
1 49098U 21075Z   22009.25001157  .00044022  00000+0  11284+0 0  9995
2 49098  87.9153 327.8975 0001653  96.7036 310.2162 13.17626564 21258
ONEWEB-0313             
1 49099U 21075AA  22008.91667824 -.00059996  00000+0 -15550+0 0  9995
2 49099  87.9112 328.0399 0001500 104.5703 228.0246 13.17681229  3299
ONEWEB-0314             
1 49100U 21075AB  22009.25001157  .00044995  00000+0  11532+0 0  9994
2 49100  87.9116 327.9599 0001661  98.4935  36.5365 13.17629059 21222
ONEWEB-0315             
1 49101U 21075AC  22008.91667824 -.00033404  00000+0 -38445-2 0  9996
2 49101  87.5358 321.4696 0019203 154.8096 282.4002 14.85922410  3559
ONEWEB-0316             
1 49102U 21075AD  22008.91667824 -.00038481  00000+0 -44304-2 0  9998
2 49102  87.2005 316.8328 0019888 139.7522 266.2170 14.85923011  3555
ONEWEB-0317             
1 49103U 21075AE  22009.25001157  .00063494  00000+0  72036-2 0  9991
2 49103  87.5333 321.2107 0019808 152.4405 116.7559 14.85883828 22295
ONEWEB-0318             
1 49104U 21075AF  22008.91667824 -.00040046  00000+0 -46095-2 0  9999
2 49104  87.1959 316.7594 0020681 138.3981 303.0163 14.85928698  3553
ONEWEB-0319             
1 49105U 21075AG  22009.25001157  .00044629  00000+0  11438+0 0  9998
2 49105  87.9137 327.9265 0002631  93.6231 342.5757 13.17630865 21260
ONEWEB-0323             
1 49106U 21075AH  22008.91667824 -.00040652  00000+0 -48215-2 0  9990
2 49106  87.5059 317.2085 0022898 146.1651 154.7573 14.84664479  3542
ONEWEB-0329             
1 49107U 21075AJ  22008.91667824 -.00015593  00000+0 -40255-1 0  9992
2 49107  87.9066 328.0092 0001822  94.6725 186.6810 13.17661701  3296
ONEWEB-0330             
1 49108U 21075AK  22009.25001157  .00044165  00000+0  11319+0 0  9994
2 49108  87.9117 327.9462 0001753  91.6489 322.5316 13.17635143 21282
ONEWEB-0292             
1 49186U 21083A   22008.91667824 -.00055824  00000+0 -62473-2 0  9996
2 49186  87.3843 287.2725 0017898 247.2949 229.2664 14.87203132  3551
ONEWEB-0303             
1 49187U 21083B   22008.91667824 -.00045825  00000+0 -11682+0 0  9990
2 49187  87.9069 297.5304 0001913  88.6368  67.3149 13.18705057  3306
ONEWEB-0306             
1 49188U 21083C   22008.91667824 -.00045618  00000+0 -11628+0 0  9991
2 49188  87.9055 297.5132 0002357  85.8962  99.3737 13.18710455  3310
ONEWEB-0307             
1 49189U 21083D   22008.91667824 -.00056331  00000+0 -63069-2 0  9995
2 49189  87.3690 287.3461 0015864 236.6811 106.1103 14.87213742  3530
ONEWEB-0320             
1 49190U 21083E   22008.91667824 -.00045797  00000+0 -11674+0 0  9993
2 49190  87.9094 297.5314 0001409  74.5069  88.7717 13.18710654  3296
ONEWEB-0321             
1 49191U 21083F   22008.91667824 -.00059107  00000+0 -62234-2 0  9995
2 49191  87.2061 287.0657 0018562 246.3129 340.6965 14.89681525  3548
ONEWEB-0322             
1 49192U 21083G   22008.91667824 -.00054061  00000+0 -60549-2 0  9997
2 49192  87.3825 287.2852 0016715 249.7018 197.2310 14.87175964  3542
